IRIDIUM 63 [-]          
1 25286U 98021B   23355.95066908  .00000741  00000+0  25084-3 0  9997
2 25286  86.3978 309.6860 0002118  91.9916 268.1523 14.35534164345886
IRIDIUM 69 [-]          
1 25319U 98026A   23355.91356679  .00000703  00000+0  21848-3 0  9994
2 25319  86.3981 324.6119 0003587  51.9661 308.1861 14.39713695344864
IRIDIUM 71 [-]          
1 25320U 98026B   23355.95344081  .00000791  00000+0  24472-3 0  9997
2 25320  86.3972 319.4029 0004396  84.2847 275.8854 14.40039962345382
IRIDIUM 82 [-]          
1 25467U 98051A   23355.57736164  .00011427  00000+0  64363-3 0  9993
2 25467  86.3928   9.9526 0142896 152.6945 208.1898 15.04687024341589
IRIDIUM 2 [-]           
1 25527U 98066A   23355.60449543  .00046943  00000+0  87765-3 0  9994
2 25527  85.5174  56.7664 0002038 289.4323  70.6714 15.48543449380026
